STARLINK-2022           
1 47643U 21012Z   23276.56636278  .00021470  00000+0  14552-2 0  9995
2 47643  53.0530  78.5575 0001492  83.2520 276.8638 15.06417733146407
